STARLINK-31860          
1 59670U 24084S   26068.29977680  .00000063  00000+0  11822-4 0  9991
2 59670  43.0038  40.5216 0001168 233.4402 126.6342 15.27576635104331
TRANSPORTER-12 OBJECT BA
1 62657U 25009BA  26068.70118713  .00011330  00000+0  42733-3 0  9991
2 62657  97.3985 151.1390 0000403 234.6623 125.4579 15.27214003 63739
